{"pagination": {"has_next": false, "has_prev": false, "page": 1, "per_page": 25, "pages": 1, "next_num": null, "prev_num": null, "total": 21, "include_page_info": "yes"}, "items": [{"name": "Ye Olde Commons", "branch_id": 4, "city": null, "id": 2, "state": "MA", "address2": null, "events": [], "zip_code": 1507, "address": "120 Northside Rd", "branch": {"name": "Massachusetts", "id": 4, "short_name": "MA"}}, {"name": "Camp Kachina", "branch_id": 5, "city": null, "id": 3, "state": "TX", "address2": null, "events": [], "zip_code": 76502, "address": "14750 Camp Kachina Rd", "branch": {"name": "Texas", "id": 5, "short_name": "TX"}}, {"name": "AH Stephens State Park", "branch_id": 24, "city": "Crawfordsville", "id": 4, "state": "GA", "address2": "", "events": [], "zip_code": 88888, "address": "Georgia", "branch": {"name": "Georgia", "id": 24, "short_name": "GA"}}, {"name": "New Mexico", "branch_id": 21, "city": "NM", "id": 5, "state": "NM", "address2": "", "events": [], "zip_code": 88888, "address": "NM", "branch": {"name": "New Mexico ", "id": 21, "short_name": "NM"}}, {"name": "Kentucky", "branch_id": 15, "city": "KY", "id": 6, "state": "KY", "address2": "", "events": [], "zip_code": 88888, "address": "KY", "branch": {"name": "Kentucky", "id": 15, "short_name": "KY"}}, {"name": "Oregon", "branch_id": 13, "city": "OR", "id": 7, "state": "OR", "address2": "", "events": [], "zip_code": 88888, "address": "OR", "branch": {"name": "National", "id": 13, "short_name": "NA"}}, {"name": "test geo", "branch_id": 24, "city": "arst", "id": 8, "state": "tt", "address2": "", "events": [], "zip_code": 77777, "address": "arst", "branch": {"name": "Georgia", "id": 24, "short_name": "GA"}}, {"name": "Camp Lutherwood", "branch_id": 13, "city": "Cheshire", "id": 9, "state": "OR", "address2": "", "events": [], "zip_code": 97419, "address": "9741, 22960 OR-36", "branch": {"name": "National", "id": 13, "short_name": "NA"}}, {"name": "Oregon Primary", "branch_id": 12, "city": "OR", "id": 10, "state": "OR", "address2": "", "events": [], "zip_code": 88888, "address": "OR", "branch": {"name": "Oregon", "id": 12, "short_name": "OR"}}, {"name": "Montgomery Conference Center", "branch_id": 8, "city": "Starke", "id": 11, "state": "FL", "address2": "", "events": [], "zip_code": 32091, "address": "88 SE 75th St", "branch": {"name": "Florida", "id": 8, "short_name": "FL"}}, {"name": "SoCal", "branch_id": 1, "city": "SoCal", "id": 12, "state": "CA", "address2": "", "events": [], "zip_code": 88888, "address": "SoCal", "branch": {"name": "Southern California", "id": 1, "short_name": "SoCal"}}, {"name": "Washington", "branch_id": 2, "city": "WA", "id": 13, "state": "WA", "address2": "", "events": [], "zip_code": 88888, "address": "WA", "branch": {"name": "Washington", "id": 2, "short_name": "WA"}}, {"name": "New Jersey", "branch_id": 3, "city": "NJ", "id": 14, "state": "NJ", "address2": "", "events": [], "zip_code": 88888, "address": "NJ", "branch": {"name": "New Jersey", "id": 3, "short_name": "NJ"}}, {"name": "Indiana", "branch_id": 7, "city": "IN", "id": 15, "state": "IN", "address2": "", "events": [], "zip_code": 88888, "address": "IN", "branch": {"name": "Indiana", "id": 7, "short_name": "IN"}}, {"name": "Florida", "branch_id": 13, "city": "FL", "id": 16, "state": "FL", "address2": "", "events": [], "zip_code": 88888, "address": "FL", "branch": {"name": "National", "id": 13, "short_name": "NA"}}, {"name": "Wisconsin", "branch_id": 16, "city": "WI", "id": 17, "state": "WI", "address2": "", "events": [], "zip_code": 88888, "address": "WI", "branch": {"name": "Wisconsin", "id": 16, "short_name": "WI"}}, {"name": "Colorado", "branch_id": 17, "city": "CO", "id": 18, "state": "CO", "address2": "", "events": [], "zip_code": 88888, "address": "CO", "branch": {"name": "Colorado", "id": 17, "short_name": "CO"}}, {"name": "Arkansas", "branch_id": 18, "city": "AR", "id": 19, "state": "AR", "address2": "", "events": [], "zip_code": 88888, "address": "AR", "branch": {"name": "Arkansas", "id": 18, "short_name": "AR"}}, {"name": "Oklahoma", "branch_id": 19, "city": "OK", "id": 20, "state": "OK", "address2": "", "events": [], "zip_code": 88888, "address": "OK", "branch": {"name": "Oklahoma", "id": 19, "short_name": "OK"}}, {"name": "Ohio", "branch_id": 22, "city": "OH", "id": 21, "state": "OH", "address2": "", "events": [], "zip_code": 88888, "address": "OH", "branch": {"name": "Ohio", "id": 22, "short_name": "OH"}}, {"name": "NorCal", "branch_id": 23, "city": "CA", "id": 22, "state": "CA", "address2": "", "events": [], "zip_code": 88888, "address": "NorCal", "branch": {"name": "Northern California", "id": 23, "short_name": "NoCA"}}]}
